KUZGTU 1 (RS47S)        
1 57217U 23091AV  26155.93260762  .00014328  00000+0  50123-3 0  9992
2 57217  97.5064 220.2903 0012182 135.8402 224.3813 15.29565902162501
SONATE-2                
1 59112U 24043Q   26154.97364330  .00039146  00000+0  52779-3 0  9999
2 59112  97.5529 304.5700 0006326 241.9322 118.1294 15.57700323125834
MESAT1                  
1 60209U 24125G   26155.10557233  .00060503  00000+0  69656-3 0  9994
2 60209  97.2302  12.3026 0008331 256.8066 103.2263 15.61758967107521
OOV-CUBE (TUBSAT-30)    
1 60240U 24128F   26155.87862744  .00003161  00000+0  24588-3 0  9994
2 60240  61.9956 268.4903 0046149 131.0003 229.5093 15.02716687104260
COLIBRI-S (RS67S)       
1 61746U 24199M   26155.90498772  .00024967  00000+0  49173-3 0  9998
2 61746  97.3005  29.6507 0007044 335.6386  24.4530 15.47195028135513
HORS 3 (RS81S)          
1 61753U 24199U   26155.92360177  .00037198  00000+0  57286-3 0  9999
2 61753  97.2989  31.5269 0004888 345.9598  14.1520 15.54097069135654
HORS 4 (RS82S)          
1 61754U 24199V   26155.92003663  .00049668  00000+0  64892-3 0  9990
2 61754  97.2936  32.6484 0003654 338.6666  21.4437 15.58506225135733
ARCTICSAT 1 (RS74S)     
1 61762U 24199AD  26155.91839675  .00718237  24610-3  12599-2 0  9996
2 61762  97.2851  39.1542 0006143 197.7920 162.3146 16.02089561136156
SIT-2086                
1 61764U 24199AF  26155.88693502  .00039479  00000+0  65051-3 0  9990
2 61764  97.2948  32.0088 0004892 319.6131  40.4758 15.52205117132523
HYPERVIEW 1G (RS66S)    
1 61772U 24199AP  26155.92175159  .00123632  00000+0  91103-3 0  9999
2 61772  97.2890  35.0492 0002182 318.4129  41.6968 15.72661314132741
ALTAIR (RS65S)          
1 61779U 24199AW  26155.87169505  .00011665  00000+0  32607-3 0  9994
2 61779  97.3038  25.3050 0012424 359.2092   0.9131 15.36764374135223
ASRTU-1 (AO-123)        
1 61781U 24199AY  26155.91419406  .00009193  00000+0  26806-3 0  9997
2 61781  97.3010  24.6961 0013638   0.8196 359.3067 15.35491498132040
SAMSAT-IONOSPHERE (RS7*)
1 61784U 24199BB  26155.91335304  .00044114  00000+0  62080-3 0  9990
2 61784  97.2957  31.5209 0006737 338.9020  21.1957 15.56515464135652
RTU MIREA 1 (RS51S)     
1 61785U 24199BC  26155.89982436  .00059790  00000+0  74492-3 0  9998
2 61785  97.2948  32.2779 0006188 334.0439  26.0506 15.59711252132550
TEVEL2-4                
1 63213U 25052D   26155.66099578  .00021744  00000+0  65898-3 0  9994
2 63213  97.3926  52.0362 0004288 127.7510 232.4122 15.34152369 68195
TEVEL2-5                
1 63214U 25052E   26155.68011441  .00020387  00000+0  62137-3 0  9995
2 63214  97.3911  52.0060 0004069 127.8276 232.3335 15.33985738 68190
TEVEL2-6                
1 63215U 25052F   26155.69214829  .00020192  00000+0  61616-3 0  9997
2 63215  97.3914  52.0022 0004350 129.5253 230.6375 15.33948162 68194
TEVEL2-1                
1 63217U 25052H   26155.65165082  .00020115  00000+0  62394-3 0  9990
2 63217  97.3886  51.6013 0003902 137.4262 222.7283 15.33430587 68174
TEVEL2-3                
1 63218U 25052J   26155.64673364  .00020177  00000+0  62480-3 0  9991
2 63218  97.3888  51.6166 0003978 138.3190 221.8356 15.33483588 68179
TEVEL2-2                
1 63219U 25052K   26155.65203120  .00020518  00000+0  63618-3 0  9995
2 63219  97.3887  51.6034 0003936 139.0495 221.1044 15.33439815 68174
TEVEL2-9                
1 63237U 25052AD  26155.94008914  .00018283  00000+0  60230-3 0  9994
2 63237  97.3944  51.2932 0006617 166.5216 193.6204 15.31506675 68152
TEVEL2-7                
1 63238U 25052AE  26155.65193812  .00017921  00000+0  59588-3 0  9997
2 63238  97.3951  50.9267 0006581 168.2020 191.9377 15.31212802 68103
TEVEL2-8                
1 63239U 25052AF  26155.66005754  .00017961  00000+0  59749-3 0  9999
2 63239  97.3951  50.9120 0006563 168.5625 191.5767 15.31195553 68108
INNOSAT 16 (RS92S7)     
1 64878U 25155C   26155.93181307  .00006780  00000+0  27168-3 0  9999
2 64878  97.4563 123.1006 0009123 220.8209 139.2346 15.25322350 78809
GEOSCAN 6 (RS92S6)      
1 64879U 25155D   26155.88635941  .00011128  00000+0  38649-3 0  9990
2 64879  97.4556 124.3934 0006693 205.8907 154.2000 15.29911192 78886
GEOSCAN 1 (RS92S1)      
1 64880U 25155E   26155.89351665  .00011636  00000+0  39691-3 0  9993
2 64880  97.4553 124.5381 0006597 205.6219 154.4695 15.30488499 78894
239ALFEROV (RS61S)      
1 64881U 25155F   26155.94570405  .00015147  00000+0  48298-3 0  9999
2 64881  97.4554 125.1115 0006239 201.7900 158.3077 15.32599999 78937
GEOSCAN 2 (RS92S2)      
1 64890U 25155Q   26155.88937999  .00011822  00000+0  39984-3 0  9995
2 64890  97.4552 124.6816 0006476 189.5207 170.5912 15.30760754 78901
GEOSCAN 5 (RS92S5)      
1 64891U 25155R   26155.87199277  .00016583  00000+0  52336-3 0  9999
2 64891  97.4546 125.1700 0004913 205.1702 154.9301 15.32916743 78936
GEOSCAN 4 (RS92S4)      
1 64892U 25155S   26155.92266327  .00016864  00000+0  52966-3 0  9998
2 64892  97.4550 125.2660 0004960 205.9253 154.1741 15.33066455 78947
