OBJECT_NAME,OBJECT_ID,EPOCH,MEAN_MOTION,ECCENTRICITY,INCLINATION,RA_OF_ASC_NODE,ARG_OF_PERICENTER,MEAN_ANOMALY,EPHEMERIS_TYPE,CLASSIFICATION_TYPE,NORAD_CAT_ID,ELEMENT_SET_NO,REV_AT_EPOCH,BSTAR,MEAN_MOTION_DOT,MEAN_MOTION_DDOT
KUZGTU 1 (RS47S),2023-091AV,2026-06-04T22:22:57.298368,15.29565902,.00121821,97.5064,220.2903,135.8402,224.3813,0,U,57217,999,16250,.50122603E-3,.14328E-3,0
SONATE-2,2024-043Q,2026-06-03T23:22:02.781120,15.57700323,.00063261,97.5529,304.5700,241.9322,118.1294,0,U,59112,999,12583,.52778692E-3,.39146E-3,0
MESAT1,2024-125G,2026-06-04T02:32:01.449312,15.61758967,.00083317,97.2302,12.3026,256.8066,103.2263,0,U,60209,999,10752,.69656311E-3,.60503E-3,0
OOV-CUBE (TUBSAT-30),2024-128F,2026-06-04T21:05:13.410816,15.02716687,.00461496,61.9956,268.4903,131.0003,229.5093,0,U,60240,999,10426,.24587656E-3,.3161E-4,0
COLIBRI-S (RS67S),2024-199M,2026-06-04T21:43:10.939008,15.47195028,.00070445,97.3005,29.6507,335.6386,24.4530,0,U,61746,999,13551,.49172537E-3,.24967E-3,0
HORS 3 (RS81S),2024-199U,2026-06-04T22:09:59.192928,15.54097069,.00048889,97.2989,31.5269,345.9598,14.1520,0,U,61753,999,13565,.57286203E-3,.37198E-3,0
HORS 4 (RS82S),2024-199V,2026-06-04T22:04:51.164832,15.58506225,.00036546,97.2936,32.6484,338.6666,21.4437,0,U,61754,999,13573,.64892379E-3,.49668E-3,0
ARCTICSAT 1 (RS74S),2024-199AD,2026-06-04T22:02:29.479200,16.02089561,.00061431,97.2851,39.1542,197.7920,162.3146,0,U,61762,999,13615,.12599176E-2,.718237E-2,.24609902E-3
SIT-2086,2024-199AF,2026-06-04T21:17:11.185728,15.52205117,.00048924,97.2948,32.0088,319.6131,40.4758,0,U,61764,999,13252,.65051289E-3,.39479E-3,0
HYPERVIEW 1G (RS66S),2024-199AP,2026-06-04T22:07:19.337376,15.72661314,.00021829,97.2890,35.0492,318.4129,41.6968,0,U,61772,999,13274,.91102989E-3,.123632E-2,0
ALTAIR (RS65S),2024-199AW,2026-06-04T20:55:14.452320,15.36764374,.0012424,97.3038,25.3050,359.2092,0.9131,0,U,61779,999,13522,.32606553E-3,.11665E-3,0
ASRTU-1 (AO-123),2024-199AY,2026-06-04T21:56:26.366784,15.35491498,.00136384,97.3010,24.6961,0.8196,359.3067,0,U,61781,999,13204,.26806299E-3,.9193E-4,0
SAMSAT-IONOSPHERE (RS75S),2024-199BB,2026-06-04T21:55:13.702656,15.56515464,.00067372,97.2957,31.5209,338.9020,21.1957,0,U,61784,999,13565,.62080345E-3,.44114E-3,0
RTU MIREA 1 (RS51S),2024-199BC,2026-06-04T21:35:44.824704,15.59711252,.00061885,97.2948,32.2779,334.0439,26.0506,0,U,61785,999,13255,.74492395E-3,.5979E-3,0
TEVEL2-4,2025-052D,2026-06-04T15:51:50.035392,15.34152369,.00042884,97.3926,52.0362,127.7510,232.4122,0,U,63213,999,6819,.65897715E-3,.21744E-3,0
TEVEL2-5,2025-052E,2026-06-04T16:19:21.885024,15.33985738,.00040695,97.3911,52.0060,127.8276,232.3335,0,U,63214,999,6819,.62136531E-3,.20387E-3,0
TEVEL2-6,2025-052F,2026-06-04T16:36:41.612256,15.33948162,.00043508,97.3914,52.0022,129.5253,230.6375,0,U,63215,999,6819,.6161594E-3,.20192E-3,0
TEVEL2-1,2025-052H,2026-06-04T15:38:22.630848,15.33430587,.00039028,97.3886,51.6013,137.4262,222.7283,0,U,63217,999,6817,.62394043E-3,.20115E-3,0
TEVEL2-3,2025-052J,2026-06-04T15:31:17.786496,15.33483588,.00039786,97.3888,51.6166,138.3190,221.8356,0,U,63218,999,6817,.62480469E-3,.20177E-3,0
TEVEL2-2,2025-052K,2026-06-04T15:38:55.495680,15.33439815,.00039362,97.3887,51.6034,139.0495,221.1044,0,U,63219,999,6817,.63617993E-3,.20518E-3,0
TEVEL2-9,2025-052AD,2026-06-04T22:33:43.701696,15.31506675,.00066176,97.3944,51.2932,166.5216,193.6204,0,U,63237,999,6815,.60229858E-3,.18283E-3,0
TEVEL2-7,2025-052AE,2026-06-04T15:38:47.453568,15.31212802,.00065817,97.3951,50.9267,168.2020,191.9377,0,U,63238,999,6810,.59587575E-3,.17921E-3,0
TEVEL2-8,2025-052AF,2026-06-04T15:50:28.971456,15.31195553,.00065639,97.3951,50.9120,168.5625,191.5767,0,U,63239,999,6810,.59749177E-3,.17961E-3,0
INNOSAT 16 (RS92S7),2025-155C,2026-06-04T22:21:48.649248,15.25322350,.00091238,97.4563,123.1006,220.8209,139.2346,0,U,64878,999,7880,.27167715E-3,.678E-4,0
GEOSCAN 6 (RS92S6),2025-155D,2026-06-04T21:16:21.453024,15.29911192,.00066934,97.4556,124.3934,205.8907,154.2000,0,U,64879,999,7888,.38649223E-3,.11128E-3,0
GEOSCAN 1 (RS92S1),2025-155E,2026-06-04T21:26:39.838560,15.30488499,.00065977,97.4553,124.5381,205.6219,154.4695,0,U,64880,999,7889,.3969096E-3,.11636E-3,0
239ALFEROV (RS61S),2025-155F,2026-06-04T22:41:48.829920,15.32599999,.00062397,97.4554,125.1115,201.7900,158.3077,0,U,64881,999,7893,.4829778E-3,.15147E-3,0
GEOSCAN 2 (RS92S2),2025-155Q,2026-06-04T21:20:42.431136,15.30760754,.00064761,97.4552,124.6816,189.5207,170.5912,0,U,64890,999,7890,.39983673E-3,.11822E-3,0
GEOSCAN 5 (RS92S5),2025-155R,2026-06-04T20:55:40.175328,15.32916743,.00049133,97.4546,125.1700,205.1702,154.9301,0,U,64891,999,7893,.52335661E-3,.16583E-3,0
GEOSCAN 4 (RS92S4),2025-155S,2026-06-04T22:08:38.106528,15.33066455,.00049604,97.4550,125.2660,205.9253,154.1741,0,U,64892,999,7894,.52966078E-3,.16864E-3,0
